{
  "type": "FeatureCollection",
  "features": [
    {
      "type": "Feature",
      "properties": {
        "norad_id": 66877,
        "name": "ZQ-3 R/B",
        "group": "last-30-days",
        "lat": -14.70261140872923,
        "lon": 29.660293500609924,
        "alt_km": 847.6095043531386,
        "timestamp": "2025-12-17T10:52:53.101661+00:00",
        "meta_object_name": "ZQ-3 R/B",
        "meta_object_id": "2025-282A",
        "meta_epoch": "2025-12-16T12:05:30.168960",
        "meta_mean_motion": 14.67302001,
        "meta_eccentricity": 0.07466411,
        "meta_inclination": 56.9512,
        "meta_ra_of_asc_node": 43.1806,
        "meta_arg_of_pericenter": 226.5107,
        "meta_mean_anomaly": 127.1487,
        "meta_ephemeris_type": 0,
        "meta_classification_type": "U",
        "meta_norad_cat_id": 66877,
        "meta_element_set_no": 999,
        "meta_rev_at_epoch": 194,
        "meta_bstar": 0.00019784483,
        "meta_mean_motion_dot": 0.01038598,
        "meta_mean_motion_ddot": 7.617862e-06,
        "tle_line1": "1 66877U 25282A   25350.50382140  .01038598  76179-5  19784-3 0  9992",
        "tle_line2": "2 66877  56.9512  43.1806 0746641 226.5107 127.1487 14.67302001  1945"
      },
      "geometry": {
        "type": "Point",
        "coordinates": [
          29.660293500609924,
          -14.70261140872923
        ]
      }
    },
    {
      "type": "Feature",
      "properties": {
        "norad_id": 66878,
        "name": "STARLINK-35866",
        "group": "last-30-days",
        "lat": 13.517836513486943,
        "lon": -140.27395153460424,
        "alt_km": 322.5521269541723,
        "timestamp": "2025-12-17T10:52:53.101671+00:00",
        "meta_object_name": "STARLINK-35866",
        "meta_object_id": "2025-283A",
        "meta_epoch": "2025-12-16T22:00:03.000096",
        "meta_mean_motion": 15.83847215,
        "meta_eccentricity": 7.756e-05,
        "meta_inclination": 53.1559,
        "meta_ra_of_asc_node": 52.8112,
        "meta_arg_of_pericenter": 77.4097,
        "meta_mean_anomaly": 264.9784,
        "meta_ephemeris_type": 0,
        "meta_classification_type": "U",
        "meta_norad_cat_id": 66878,
        "meta_element_set_no": 999,
        "meta_rev_at_epoch": 310,
        "meta_bstar": -0.0061121137,
        "meta_mean_motion_dot": -0.01230863,
        "meta_mean_motion_ddot": 0,
        "tle_line1": "1 66878U 25283A   25350.91670139 -.01230863  00000+0 -61121-2 0  9993",
        "tle_line2": "2 66878  53.1559  52.8112 0000775  77.4097 264.9784 15.83847215  3105"
      },
      "geometry": {
        "type": "Point",
        "coordinates": [
          -140.27395153460424,
          13.517836513486943
        ]
      }
    },
    {
      "type": "Feature",
      "properties": {
        "norad_id": 66879,
        "name": "STARLINK-35749",
        "group": "last-30-days",
        "lat": 9.487487464820592,
        "lon": -137.09818995930667,
        "alt_km": 323.4047715157576,
        "timestamp": "2025-12-17T10:52:53.101682+00:00",
        "meta_object_name": "STARLINK-35749",
        "meta_object_id": "2025-283B",
        "meta_epoch": "2025-12-16T22:00:03.000096",
        "meta_mean_motion": 15.83832618,
        "meta_eccentricity": 6.831e-05,
        "meta_inclination": 53.1557,
        "meta_ra_of_asc_node": 52.8003,
        "meta_arg_of_pericenter": 71.4253,
        "meta_mean_anomaly": 276.1122,
        "meta_ephemeris_type": 0,
        "meta_classification_type": "U",
        "meta_norad_cat_id": 66879,
        "meta_element_set_no": 999,
        "meta_rev_at_epoch": 310,
        "meta_bstar": -0.0062282985,
        "meta_mean_motion_dot": -0.01250739,
        "meta_mean_motion_ddot": 0,
        "tle_line1": "1 66879U 25283B   25350.91670139 -.01250739  00000+0 -62283-2 0  9998",
        "tle_line2": "2 66879  53.1557  52.8003 0000683  71.4253 276.1122 15.83832618  3101"
      },
      "geometry": {
        "type": "Point",
        "coordinates": [
          -137.09818995930667,
          9.487487464820592
        ]
      }
    },
    {
      "type": "Feature",
      "properties": {
        "norad_id": 66880,
        "name": "STARLINK-35844",
        "group": "last-30-days",
        "lat": 11.586207136760558,
        "lon": -138.73657170066127,
        "alt_km": 322.9177512134729,
        "timestamp": "2025-12-17T10:52:53.101694+00:00",
        "meta_object_name": "STARLINK-35844",
        "meta_object_id": "2025-283C",
        "meta_epoch": "2025-12-16T22:00:03.000096",
        "meta_mean_motion": 15.83841208,
        "meta_eccentricity": 7.587e-05,
        "meta_inclination": 53.156,
        "meta_ra_of_asc_node": 52.8064,
        "meta_arg_of_pericenter": 77.1567,
        "meta_mean_anomaly": 267.6979,
        "meta_ephemeris_type": 0,
        "meta_classification_type": "U",
        "meta_norad_cat_id": 66880,
        "meta_element_set_no": 999,
        "meta_rev_at_epoch": 310,
        "meta_bstar": -0.0061468139,
        "meta_mean_motion_dot": -0.01236731,
        "meta_mean_motion_ddot": 0,
        "tle_line1": "1 66880U 25283C   25350.91670139 -.01236731  00000+0 -61468-2 0  9990",
        "tle_line2": "2 66880  53.1560  52.8064 0000758  77.1567 267.6979 15.83841208  3108"
      },
      "geometry": {
        "type": "Point",
        "coordinates": [
          -138.73657170066127,
          11.586207136760558
        ]
      }
    },
    {
      "type": "Feature",
      "properties": {
        "norad_id": 66881,
        "name": "STARLINK-35860",
        "group": "last-30-days",
        "lat": 7.748365837884984,
        "lon": -135.76008953226943,
        "alt_km": 323.67090103443115,
        "timestamp": "2025-12-17T10:52:53.101707+00:00",
        "meta_object_name": "STARLINK-35860",
        "meta_object_id": "2025-283D",
        "meta_epoch": "2025-12-16T22:00:03.000096",
        "meta_mean_motion": 15.83838061,
        "meta_eccentricity": 8.394e-05,
        "meta_inclination": 53.1558,
        "meta_ra_of_asc_node": 52.7955,
        "meta_arg_of_pericenter": 73.1297,
        "meta_mean_anomaly": 276.5866,
        "meta_ephemeris_type": 0,
        "meta_classification_type": "U",
        "meta_norad_cat_id": 66881,
        "meta_element_set_no": 999,
        "meta_rev_at_epoch": 310,
        "meta_bstar": -0.0062453865,
        "meta_mean_motion_dot": -0.0125415,
        "meta_mean_motion_ddot": 0,
        "tle_line1": "1 66881U 25283D   25350.91670139 -.01254150  00000+0 -62454-2 0  9992",
        "tle_line2": "2 66881  53.1558  52.7955 0000839  73.1297 276.5866 15.83838061  3107"
      },
      "geometry": {
        "type": "Point",
        "coordinates": [
          -135.76008953226943,
          7.748365837884984
        ]
      }
    },
    {
      "type": "Feature",
      "properties": {
        "norad_id": 66882,
        "name": "STARLINK-35912",
        "group": "last-30-days",
        "lat": 5.82428339504861,
        "lon": -134.29527786379148,
        "alt_km": 324.0231699904971,
        "timestamp": "2025-12-17T10:52:53.101719+00:00",
        "meta_object_name": "STARLINK-35912",
        "meta_object_id": "2025-283E",
        "meta_epoch": "2025-12-16T22:00:03.000096",
        "meta_mean_motion": 15.83831509,
        "meta_eccentricity": 9.021e-05,
        "meta_inclination": 53.1559,
        "meta_ra_of_asc_node": 52.791,
        "meta_arg_of_pericenter": 72.4557,
        "meta_mean_anomaly": 279.6902,
        "meta_ephemeris_type": 0,
        "meta_classification_type": "U",
        "meta_norad_cat_id": 66882,
        "meta_element_set_no": 999,
        "meta_rev_at_epoch": 310,
        "meta_bstar": -0.0062646565,
        "meta_mean_motion_dot": -0.01257256,
        "meta_mean_motion_ddot": 0,
        "tle_line1": "1 66882U 25283E   25350.91670139 -.01257256  00000+0 -62647-2 0  9997",
        "tle_line2": "2 66882  53.1559  52.7910 0000902  72.4557 279.6902 15.83831509  3107"
      },
      "geometry": {
        "type": "Point",
        "coordinates": [
          -134.29527786379148,
          5.82428339504861
        ]
      }
    },
    {
      "type": "Feature",
      "properties": {
        "norad_id": 66883,
        "name": "STARLINK-35947",
        "group": "last-30-days",
        "lat": 3.793208500423092,
        "lon": -132.76337572430933,
        "alt_km": 324.2862542383482,
        "timestamp": "2025-12-17T10:52:53.101729+00:00",
        "meta_object_name": "STARLINK-35947",
        "meta_object_id": "2025-283F",
        "meta_epoch": "2025-12-16T22:00:03.000096",
        "meta_mean_motion": 15.83823595,
        "meta_eccentricity": 8.315e-05,
        "meta_inclination": 53.1559,
        "meta_ra_of_asc_node": 52.7858,
        "meta_arg_of_pericenter": 79.8033,
        "meta_mean_anomaly": 274.9112,
        "meta_ephemeris_type": 0,
        "meta_classification_type": "U",
        "meta_norad_cat_id": 66883,
        "meta_element_set_no": 999,
        "meta_rev_at_epoch": 314,
        "meta_bstar": -0.0063101512,
        "meta_mean_motion_dot": -0.01264856,
        "meta_mean_motion_ddot": 0,
        "tle_line1": "1 66883U 25283F   25350.91670139 -.01264856  00000+0 -63102-2 0  9999",
        "tle_line2": "2 66883  53.1559  52.7858 0000831  79.8033 274.9112 15.83823595  3141"
      },
      "geometry": {
        "type": "Point",
        "coordinates": [
          -132.76337572430933,
          3.793208500423092
        ]
      }
    }
  ]
}